0 COSMOS 2251 DEB
1 35881U 93036ATU 13283.00811758  .00006302  00000-0  31400-2 0  4540
2 35881 074.2126 293.3088 0083011 293.2981 065.9440 14.15324311236777
0 COSMOS 2251 DEB
1 35881U 93036ATU 13283.99767966  .00006390  00000-0  31832-2 0  4556
2 35881 074.2125 291.5707 0083018 291.3366 067.8930 14.15333408236915
0 COSMOS 2251 DEB
1 35881U 93036ATU 13295.37704226  .00008783  00000-0  43576-2 0  4568
2 35881 074.2128 271.5843 0082854 269.1880 089.9768 14.15478229238522
